[
    {
      "CCSDS_CDM_VERS": "1.0",
      "CREATION_DATE": "2024-10-05T03:15:53.042",
      "ORIGINATOR": "CSpoc",
      "MESSAGE_ID": "1671_conj3_9268",
      "TCA": "2024-10-05T17:10:36.475",
      "MISS_DISTANCE": "14579",
      "SAT1_OBJECT": "OBJECT1",
      "SAT1_OBJECT_DESIGNATOR": "12345",
      "SAT1_CATALOG_NAME": "SATCAT",
      "SAT1_INTERNATIONAL_DESIGNATOR": "2019-030E",
      "SAT1_EPHEMERIS_NAME": "NONE",
      "SAT1_COVARIANCE_METHOD": "CALCULATED",
      "SAT1_MANEUVERABLE": "NO",
      "SAT1_REFERENCE_FRAME": "ITRF",
      "SAT1_X": "2569.097065",
      "SAT1_Y": "2245.654904",
      "SAT1_Z": "6281.497978",
      "SAT1_X_DOT": "4.418769571",
      "SAT1_Y_DOT": "4.833547743",
      "SAT1_Z_DOT": "-3.526774282",
      "SAT1_CR_R": "9.460428",
      "SAT1_CT_R": "100.95118385368234",
      "SAT1_CT_T": "494.3005",
      "SAT1_CN_R": "13.374609096870207",
      "SAT1_CN_T": "259.87230439211817",
      "SAT1_CN_N": "3.337079",
      "SAT1_CRDOT_R": "0.0004868924999999991",
      "SAT1_CRDOT_T": "-0.23848413183125663",
      "SAT1_CRDOT_N": "-0.00024371647114500403",
      "SAT1_CRDOT_RDOT": "0.0004868924999999991",
      "SAT1_CTDOT_R": "-0.00010277619533014733",
      "SAT1_CTDOT_T": "-0.00031933176551537717",
      "SAT1_CTDOT_N": "-1.550394012729719e-05",
      "SAT1_CTDOT_RDOT": "3.824140680442102e-10",
      "SAT1_CTDOT_TDOT": "1.0876239999999834e-05",
      "SAT1_CNDOT_R": "1.837409542882393e-05",
      "SAT1_CNDOT_T": "0.00016486648335839135",
      "SAT1_CNDOT_N": "1.5561972107337534e-05",
      "SAT1_CNDOT_RDOT": "-2.0723211585924206e-10",
      "SAT1_CNDOT_TDOT": "-2.1257833532321998e-11",
      "SAT1_CNDOT_NDOT": "8.516542999999602e-06",
      "SAT2_OBJECT": "OBJECT1",
      "SAT2_OBJECT_DESIGNATOR": "67891",
      "SAT2_CATALOG_NAME": "SATCAT",
      "SAT2_INTERNATIONAL_DESIGNATOR": "2021-030E",
      "SAT2_EPHEMERIS_NAME": "NONE",
      "SAT2_COVARIANCE_METHOD": "CALCULATED",
      "SAT2_MANEUVERABLE": "YES",
      "SAT2_REFERENCE_FRAME": "ITRF",
      "SAT2_X": "4665.49413",
      "SAT2_Y": "-1347.5901919999997",
      "SAT2_Z": "25913.695956",
      "SAT2_X_DOT": "15.837539142",
      "SAT2_Y_DOT": "12646.667095485998",
      "SAT2_Z_DOT": "5518.846451436",
      "SAT2_CR_R": "68518.15000000001",
      "SAT2_CT_R": "-163998711741309.6",
      "SAT2_CT_T": "2927633000.0",
      "SAT2_CN_R": "71959560.65875487",
      "SAT2_CN_T": "-23899082735.30432",
      "SAT2_CN_N": "2171.335000000001",
      "SAT2_CRDOT_R": "3363.2929999999983",
      "SAT2_CRDOT_T": "-9846467682226.9",
      "SAT2_CRDOT_N": "34722.3962751339",
      "SAT2_CRDOT_RDOT": "3363.2929999999983",
      "SAT2_CTDOT_R": "-1346.8315032614892",
      "SAT2_CTDOT_T": "15849903.560941886",
      "SAT2_CTDOT_N": "-47.94457892416641",
      "SAT2_CTDOT_RDOT": "-18.264878606315833",
      "SAT2_CTDOT_TDOT": "0.026997380000000005",
      "SAT2_CNDOT_R": "2657.4141866193004",
      "SAT2_CNDOT_T": "85617046.08932368",
      "SAT2_CNDOT_N": "234.1003829657977",
      "SAT2_CNDOT_RDOT": "-98.47141484241098",
      "SAT2_CNDOT_TDOT": "-0.0027234595338783167",
      "SAT2_CNDOT_NDOT": "0.14930469999999996"
    }
  ]